{"type":"FeatureCollection","features":[{"type":"Feature","geometry":{"type":"Polygon","coordinates":[[[-66.976241,10.629583],[-66.976241,10.48531],[-66.696911,10.48531],[-66.696911,10.629583],[-66.976241,10.629583]]]},"properties":{"@geometry-type":"groundoverlay","icon":"kml_image_googlemaps-avila-warairarepano_L1_0_0.jpg"},"bbox":[-66.97624105429905,10.485309772677823,-66.69691115406009,10.629582792817288]},{"type":"Feature","geometry":{"type":"Polygon","coordinates":[[[-66.976241,10.629583],[-66.976241,10.48531],[-66.812817,10.48531],[-66.812817,10.629583],[-66.976241,10.629583]]]},"properties":{"@geometry-type":"groundoverlay","icon":"kml_image_googlemaps-avila-warairarepano_L2_0_0.jpg"},"bbox":[-66.97624105429905,10.485309772677823,-66.81281650475202,10.629582792817288]},{"type":"Feature","geometry":{"type":"Polygon","coordinates":[[[-66.976241,10.629583],[-66.976241,10.54904],[-66.894529,10.54904],[-66.894529,10.629583],[-66.976241,10.629583]]]},"properties":{"@geometry-type":"groundoverlay","icon":"kml_image_googlemaps-avila-warairarepano_L3_0_0.jpg"},"bbox":[-66.97624105429905,10.54904002458896,-66.89452877952553,10.629582792817288]},{"type":"Feature","geometry":{"type":"Polygon","coordinates":[[[-66.976241,10.629583],[-66.976241,10.589311],[-66.935385,10.589311],[-66.935385,10.629583],[-66.976241,10.629583]]]},"properties":{"@geometry-type":"groundoverlay","icon":"kml_image_googlemaps-avila-warairarepano_L4_0_0.jpg"},"bbox":[-66.97624105429905,10.589311408703123,-66.9353849169123,10.629582792817288]},{"type":"Feature","geometry":{"type":"Polygon","coordinates":[[[-66.976241,10.629583],[-66.976241,10.609447],[-66.955813,10.609447],[-66.955813,10.629583],[-66.976241,10.629583]]]},"properties":{"@geometry-type":"groundoverlay","icon":"kml_image_googlemaps-avila-warairarepano_L5_0_0.jpg"},"bbox":[-66.97624105429905,10.609447100760207,-66.95581298560568,10.629582792817288]},{"type":"Feature","geometry":{"type":"Polygon","coordinates":[[[-66.955813,10.629583],[-66.955813,10.609447],[-66.935385,10.609447],[-66.935385,10.629583],[-66.955813,10.629583]]]},"properties":{"@geometry-type":"groundoverlay","icon":"kml_image_googlemaps-avila-warairarepano_L5_0_1.jpg"},"bbox":[-66.95581298560568,10.609447100760207,-66.9353849169123,10.629582792817288]},{"type":"Feature","geometry":{"type":"Polygon","coordinates":[[[-66.976241,10.609447],[-66.976241,10.589311],[-66.955813,10.589311],[-66.955813,10.609447],[-66.976241,10.609447]]]},"properties":{"@geometry-type":"groundoverlay","icon":"kml_image_googlemaps-avila-warairarepano_L5_1_0.jpg"},"bbox":[-66.97624105429905,10.589311408703123,-66.95581298560568,10.609447100760207]},{"type":"Feature","geometry":{"type":"Polygon","coordinates":[[[-66.955813,10.609447],[-66.955813,10.589311],[-66.935385,10.589311],[-66.935385,10.609447],[-66.955813,10.609447]]]},"properties":{"@geometry-type":"groundoverlay","icon":"kml_image_googlemaps-avila-warairarepano_L5_1_1.jpg"},"bbox":[-66.95581298560568,10.589311408703123,-66.9353849169123,10.609447100760207]},{"type":"Feature","geometry":{"type":"Polygon","coordinates":[[[-66.935385,10.629583],[-66.935385,10.589311],[-66.894529,10.589311],[-66.894529,10.629583],[-66.935385,10.629583]]]},"properties":{"@geometry-type":"groundoverlay","icon":"kml_image_googlemaps-avila-warairarepano_L4_0_1.jpg"},"bbox":[-66.9353849169123,10.589311408703123,-66.89452877952553,10.629582792817288]},{"type":"Feature","geometry":{"type":"Polygon","coordinates":[[[-66.935385,10.629583],[-66.935385,10.609447],[-66.914957,10.609447],[-66.914957,10.629583],[-66.935385,10.629583]]]},"properties":{"@geometry-type":"groundoverlay","icon":"kml_image_googlemaps-avila-warairarepano_L5_0_2.jpg"},"bbox":[-66.9353849169123,10.609447100760207,-66.9149568482189,10.629582792817288]},{"type":"Feature","geometry":{"type":"Polygon","coordinates":[[[-66.914957,10.629583],[-66.914957,10.609447],[-66.894529,10.609447],[-66.894529,10.629583],[-66.914957,10.629583]]]},"properties":{"@geometry-type":"groundoverlay","icon":"kml_image_googlemaps-avila-warairarepano_L5_0_3.jpg"},"bbox":[-66.9149568482189,10.609447100760207,-66.89452877952553,10.629582792817288]},{"type":"Feature","geometry":{"type":"Polygon","coordinates":[[[-66.935385,10.609447],[-66.935385,10.589311],[-66.914957,10.589311],[-66.914957,10.609447],[-66.935385,10.609447]]]},"properties":{"@geometry-type":"groundoverlay","icon":"kml_image_googlemaps-avila-warairarepano_L5_1_2.jpg"},"bbox":[-66.9353849169123,10.589311408703123,-66.9149568482189,10.609447100760207]},{"type":"Feature","geometry":{"type":"Polygon","coordinates":[[[-66.914957,10.609447],[-66.914957,10.589311],[-66.894529,10.589311],[-66.894529,10.609447],[-66.914957,10.609447]]]},"properties":{"@geometry-type":"groundoverlay","icon":"kml_image_googlemaps-avila-warairarepano_L5_1_3.jpg"},"bbox":[-66.9149568482189,10.589311408703123,-66.89452877952553,10.609447100760207]},{"type":"Feature","geometry":{"type":"Polygon","coordinates":[[[-66.976241,10.589311],[-66.976241,10.54904],[-66.935385,10.54904],[-66.935385,10.589311],[-66.976241,10.589311]]]},"properties":{"@geometry-type":"groundoverlay","icon":"kml_image_googlemaps-avila-warairarepano_L4_1_0.jpg"},"bbox":[-66.97624105429905,10.54904002458896,-66.9353849169123,10.589311408703123]},{"type":"Feature","geometry":{"type":"Polygon","coordinates":[[[-66.976241,10.589311],[-66.976241,10.569176],[-66.955813,10.569176],[-66.955813,10.589311],[-66.976241,10.589311]]]},"properties":{"@geometry-type":"groundoverlay","icon":"kml_image_googlemaps-avila-warairarepano_L5_2_0.jpg"},"bbox":[-66.97624105429905,10.569175716646042,-66.95581298560568,10.589311408703123]},{"type":"Feature","geometry":{"type":"Polygon","coordinates":[[[-66.955813,10.589311],[-66.955813,10.569176],[-66.935385,10.569176],[-66.935385,10.589311],[-66.955813,10.589311]]]},"properties":{"@geometry-type":"groundoverlay","icon":"kml_image_googlemaps-avila-warairarepano_L5_2_1.jpg"},"bbox":[-66.95581298560568,10.569175716646042,-66.9353849169123,10.589311408703123]},{"type":"Feature","geometry":{"type":"Polygon","coordinates":[[[-66.976241,10.569176],[-66.976241,10.54904],[-66.955813,10.54904],[-66.955813,10.569176],[-66.976241,10.569176]]]},"properties":{"@geometry-type":"groundoverlay","icon":"kml_image_googlemaps-avila-warairarepano_L5_3_0.jpg"},"bbox":[-66.97624105429905,10.54904002458896,-66.95581298560568,10.569175716646042]},{"type":"Feature","geometry":{"type":"Polygon","coordinates":[[[-66.955813,10.569176],[-66.955813,10.54904],[-66.935385,10.54904],[-66.935385,10.569176],[-66.955813,10.569176]]]},"properties":{"@geometry-type":"groundoverlay","icon":"kml_image_googlemaps-avila-warairarepano_L5_3_1.jpg"},"bbox":[-66.95581298560568,10.54904002458896,-66.9353849169123,10.569175716646042]},{"type":"Feature","geometry":{"type":"Polygon","coordinates":[[[-66.935385,10.589311],[-66.935385,10.54904],[-66.894529,10.54904],[-66.894529,10.589311],[-66.935385,10.589311]]]},"properties":{"@geometry-type":"groundoverlay","icon":"kml_image_googlemaps-avila-warairarepano_L4_1_1.jpg"},"bbox":[-66.9353849169123,10.54904002458896,-66.89452877952553,10.589311408703123]},{"type":"Feature","geometry":{"type":"Polygon","coordinates":[[[-66.935385,10.589311],[-66.935385,10.569176],[-66.914957,10.569176],[-66.914957,10.589311],[-66.935385,10.589311]]]},"properties":{"@geometry-type":"groundoverlay","icon":"kml_image_googlemaps-avila-warairarepano_L5_2_2.jpg"},"bbox":[-66.9353849169123,10.569175716646042,-66.9149568482189,10.589311408703123]},{"type":"Feature","geometry":{"type":"Polygon","coordinates":[[[-66.914957,10.589311],[-66.914957,10.569176],[-66.894529,10.569176],[-66.894529,10.589311],[-66.914957,10.589311]]]},"properties":{"@geometry-type":"groundoverlay","icon":"kml_image_googlemaps-avila-warairarepano_L5_2_3.jpg"},"bbox":[-66.9149568482189,10.569175716646042,-66.89452877952553,10.589311408703123]},{"type":"Feature","geometry":{"type":"Polygon","coordinates":[[[-66.935385,10.569176],[-66.935385,10.54904],[-66.914957,10.54904],[-66.914957,10.569176],[-66.935385,10.569176]]]},"properties":{"@geometry-type":"groundoverlay","icon":"kml_image_googlemaps-avila-warairarepano_L5_3_2.jpg"},"bbox":[-66.9353849169123,10.54904002458896,-66.9149568482189,10.569175716646042]},{"type":"Feature","geometry":{"type":"Polygon","coordinates":[[[-66.914957,10.569176],[-66.914957,10.54904],[-66.894529,10.54904],[-66.894529,10.569176],[-66.914957,10.569176]]]},"properties":{"@geometry-type":"groundoverlay","icon":"kml_image_googlemaps-avila-warairarepano_L5_3_3.jpg"},"bbox":[-66.9149568482189,10.54904002458896,-66.89452877952553,10.569175716646042]},{"type":"Feature","geometry":{"type":"Polygon","coordinates":[[[-66.894529,10.629583],[-66.894529,10.54904],[-66.812817,10.54904],[-66.812817,10.629583],[-66.894529,10.629583]]]},"properties":{"@geometry-type":"groundoverlay","icon":"kml_image_googlemaps-avila-warairarepano_L3_0_1.jpg"},"bbox":[-66.89452877952553,10.54904002458896,-66.81281650475202,10.629582792817288]},{"type":"Feature","geometry":{"type":"Polygon","coordinates":[[[-66.894529,10.629583],[-66.894529,10.589311],[-66.853673,10.589311],[-66.853673,10.629583],[-66.894529,10.629583]]]},"properties":{"@geometry-type":"groundoverlay","icon":"kml_image_googlemaps-avila-warairarepano_L4_0_2.jpg"},"bbox":[-66.89452877952553,10.589311408703123,-66.85367264213878,10.629582792817288]},{"type":"Feature","geometry":{"type":"Polygon","coordinates":[[[-66.894529,10.629583],[-66.894529,10.609447],[-66.874101,10.609447],[-66.874101,10.629583],[-66.894529,10.629583]]]},"properties":{"@geometry-type":"groundoverlay","icon":"kml_image_googlemaps-avila-warairarepano_L5_0_4.jpg"},"bbox":[-66.89452877952553,10.609447100760207,-66.87410071083215,10.629582792817288]},{"type":"Feature","geometry":{"type":"Polygon","coordinates":[[[-66.874101,10.629583],[-66.874101,10.609447],[-66.853673,10.609447],[-66.853673,10.629583],[-66.874101,10.629583]]]},"properties":{"@geometry-type":"groundoverlay","icon":"kml_image_googlemaps-avila-warairarepano_L5_0_5.jpg"},"bbox":[-66.87410071083215,10.609447100760207,-66.85367264213878,10.629582792817288]},{"type":"Feature","geometry":{"type":"Polygon","coordinates":[[[-66.894529,10.609447],[-66.894529,10.589311],[-66.874101,10.589311],[-66.874101,10.609447],[-66.894529,10.609447]]]},"properties":{"@geometry-type":"groundoverlay","icon":"kml_image_googlemaps-avila-warairarepano_L5_1_4.jpg"},"bbox":[-66.89452877952553,10.589311408703123,-66.87410071083215,10.609447100760207]},{"type":"Feature","geometry":{"type":"Polygon","coordinates":[[[-66.874101,10.609447],[-66.874101,10.589311],[-66.853673,10.589311],[-66.853673,10.609447],[-66.874101,10.609447]]]},"properties":{"@geometry-type":"groundoverlay","icon":"kml_image_googlemaps-avila-warairarepano_L5_1_5.jpg"},"bbox":[-66.87410071083215,10.589311408703123,-66.85367264213878,10.609447100760207]},{"type":"Feature","geometry":{"type":"Polygon","coordinates":[[[-66.853673,10.629583],[-66.853673,10.589311],[-66.812817,10.589311],[-66.812817,10.629583],[-66.853673,10.629583]]]},"properties":{"@geometry-type":"groundoverlay","icon":"kml_image_googlemaps-avila-warairarepano_L4_0_3.jpg"},"bbox":[-66.85367264213878,10.589311408703123,-66.81281650475202,10.629582792817288]},{"type":"Feature","geometry":{"type":"Polygon","coordinates":[[[-66.853673,10.629583],[-66.853673,10.609447],[-66.833245,10.609447],[-66.833245,10.629583],[-66.853673,10.629583]]]},"properties":{"@geometry-type":"groundoverlay","icon":"kml_image_googlemaps-avila-warairarepano_L5_0_6.jpg"},"bbox":[-66.85367264213878,10.609447100760207,-66.8332445734454,10.629582792817288]},{"type":"Feature","geometry":{"type":"Polygon","coordinates":[[[-66.833245,10.629583],[-66.833245,10.609447],[-66.812817,10.609447],[-66.812817,10.629583],[-66.833245,10.629583]]]},"properties":{"@geometry-type":"groundoverlay","icon":"kml_image_googlemaps-avila-warairarepano_L5_0_7.jpg"},"bbox":[-66.8332445734454,10.609447100760207,-66.81281650475202,10.629582792817288]},{"type":"Feature","geometry":{"type":"Polygon","coordinates":[[[-66.853673,10.609447],[-66.853673,10.589311],[-66.833245,10.589311],[-66.833245,10.609447],[-66.853673,10.609447]]]},"properties":{"@geometry-type":"groundoverlay","icon":"kml_image_googlemaps-avila-warairarepano_L5_1_6.jpg"},"bbox":[-66.85367264213878,10.589311408703123,-66.8332445734454,10.609447100760207]},{"type":"Feature","geometry":{"type":"Polygon","coordinates":[[[-66.833245,10.609447],[-66.833245,10.589311],[-66.812817,10.589311],[-66.812817,10.609447],[-66.833245,10.609447]]]},"properties":{"@geometry-type":"groundoverlay","icon":"kml_image_googlemaps-avila-warairarepano_L5_1_7.jpg"},"bbox":[-66.8332445734454,10.589311408703123,-66.81281650475202,10.609447100760207]},{"type":"Feature","geometry":{"type":"Polygon","coordinates":[[[-66.894529,10.589311],[-66.894529,10.54904],[-66.853673,10.54904],[-66.853673,10.589311],[-66.894529,10.589311]]]},"properties":{"@geometry-type":"groundoverlay","icon":"kml_image_googlemaps-avila-warairarepano_L4_1_2.jpg"},"bbox":[-66.89452877952553,10.54904002458896,-66.85367264213878,10.589311408703123]},{"type":"Feature","geometry":{"type":"Polygon","coordinates":[[[-66.894529,10.589311],[-66.894529,10.569176],[-66.874101,10.569176],[-66.874101,10.589311],[-66.894529,10.589311]]]},"properties":{"@geometry-type":"groundoverlay","icon":"kml_image_googlemaps-avila-warairarepano_L5_2_4.jpg"},"bbox":[-66.89452877952553,10.569175716646042,-66.87410071083215,10.589311408703123]},{"type":"Feature","geometry":{"type":"Polygon","coordinates":[[[-66.874101,10.589311],[-66.874101,10.569176],[-66.853673,10.569176],[-66.853673,10.589311],[-66.874101,10.589311]]]},"properties":{"@geometry-type":"groundoverlay","icon":"kml_image_googlemaps-avila-warairarepano_L5_2_5.jpg"},"bbox":[-66.87410071083215,10.569175716646042,-66.85367264213878,10.589311408703123]},{"type":"Feature","geometry":{"type":"Polygon","coordinates":[[[-66.894529,10.569176],[-66.894529,10.54904],[-66.874101,10.54904],[-66.874101,10.569176],[-66.894529,10.569176]]]},"properties":{"@geometry-type":"groundoverlay","icon":"kml_image_googlemaps-avila-warairarepano_L5_3_4.jpg"},"bbox":[-66.89452877952553,10.54904002458896,-66.87410071083215,10.569175716646042]},{"type":"Feature","geometry":{"type":"Polygon","coordinates":[[[-66.874101,10.569176],[-66.874101,10.54904],[-66.853673,10.54904],[-66.853673,10.569176],[-66.874101,10.569176]]]},"properties":{"@geometry-type":"groundoverlay","icon":"kml_image_googlemaps-avila-warairarepano_L5_3_5.jpg"},"bbox":[-66.87410071083215,10.54904002458896,-66.85367264213878,10.569175716646042]},{"type":"Feature","geometry":{"type":"Polygon","coordinates":[[[-66.853673,10.589311],[-66.853673,10.54904],[-66.812817,10.54904],[-66.812817,10.589311],[-66.853673,10.589311]]]},"properties":{"@geometry-type":"groundoverlay","icon":"kml_image_googlemaps-avila-warairarepano_L4_1_3.jpg"},"bbox":[-66.85367264213878,10.54904002458896,-66.81281650475202,10.589311408703123]},{"type":"Feature","geometry":{"type":"Polygon","coordinates":[[[-66.853673,10.589311],[-66.853673,10.569176],[-66.833245,10.569176],[-66.833245,10.589311],[-66.853673,10.589311]]]},"properties":{"@geometry-type":"groundoverlay","icon":"kml_image_googlemaps-avila-warairarepano_L5_2_6.jpg"},"bbox":[-66.85367264213878,10.569175716646042,-66.8332445734454,10.589311408703123]},{"type":"Feature","geometry":{"type":"Polygon","coordinates":[[[-66.833245,10.589311],[-66.833245,10.569176],[-66.812817,10.569176],[-66.812817,10.589311],[-66.833245,10.589311]]]},"properties":{"@geometry-type":"groundoverlay","icon":"kml_image_googlemaps-avila-warairarepano_L5_2_7.jpg"},"bbox":[-66.8332445734454,10.569175716646042,-66.81281650475202,10.589311408703123]},{"type":"Feature","geometry":{"type":"Polygon","coordinates":[[[-66.853673,10.569176],[-66.853673,10.54904],[-66.833245,10.54904],[-66.833245,10.569176],[-66.853673,10.569176]]]},"properties":{"@geometry-type":"groundoverlay","icon":"kml_image_googlemaps-avila-warairarepano_L5_3_6.jpg"},"bbox":[-66.85367264213878,10.54904002458896,-66.8332445734454,10.569175716646042]},{"type":"Feature","geometry":{"type":"Polygon","coordinates":[[[-66.833245,10.569176],[-66.833245,10.54904],[-66.812817,10.54904],[-66.812817,10.569176],[-66.833245,10.569176]]]},"properties":{"@geometry-type":"groundoverlay","icon":"kml_image_googlemaps-avila-warairarepano_L5_3_7.jpg"},"bbox":[-66.8332445734454,10.54904002458896,-66.81281650475202,10.569175716646042]},{"type":"Feature","geometry":{"type":"Polygon","coordinates":[[[-66.976241,10.54904],[-66.976241,10.48531],[-66.894529,10.48531],[-66.894529,10.54904],[-66.976241,10.54904]]]},"properties":{"@geometry-type":"groundoverlay","icon":"kml_image_googlemaps-avila-warairarepano_L3_1_0.jpg"},"bbox":[-66.97624105429905,10.485309772677823,-66.89452877952553,10.54904002458896]},{"type":"Feature","geometry":{"type":"Polygon","coordinates":[[[-66.976241,10.54904],[-66.976241,10.508769],[-66.935385,10.508769],[-66.935385,10.54904],[-66.976241,10.54904]]]},"properties":{"@geometry-type":"groundoverlay","icon":"kml_image_googlemaps-avila-warairarepano_L4_2_0.jpg"},"bbox":[-66.97624105429905,10.508768640474795,-66.9353849169123,10.54904002458896]},{"type":"Feature","geometry":{"type":"Polygon","coordinates":[[[-66.976241,10.54904],[-66.976241,10.528904],[-66.955813,10.528904],[-66.955813,10.54904],[-66.976241,10.54904]]]},"properties":{"@geometry-type":"groundoverlay","icon":"kml_image_googlemaps-avila-warairarepano_L5_4_0.jpg"},"bbox":[-66.97624105429905,10.528904332531877,-66.95581298560568,10.54904002458896]},{"type":"Feature","geometry":{"type":"Polygon","coordinates":[[[-66.955813,10.54904],[-66.955813,10.528904],[-66.935385,10.528904],[-66.935385,10.54904],[-66.955813,10.54904]]]},"properties":{"@geometry-type":"groundoverlay","icon":"kml_image_googlemaps-avila-warairarepano_L5_4_1.jpg"},"bbox":[-66.95581298560568,10.528904332531877,-66.9353849169123,10.54904002458896]},{"type":"Feature","geometry":{"type":"Polygon","coordinates":[[[-66.976241,10.528904],[-66.976241,10.508769],[-66.955813,10.508769],[-66.955813,10.528904],[-66.976241,10.528904]]]},"properties":{"@geometry-type":"groundoverlay","icon":"kml_image_googlemaps-avila-warairarepano_L5_5_0.jpg"},"bbox":[-66.97624105429905,10.508768640474795,-66.95581298560568,10.528904332531877]},{"type":"Feature","geometry":{"type":"Polygon","coordinates":[[[-66.955813,10.528904],[-66.955813,10.508769],[-66.935385,10.508769],[-66.935385,10.528904],[-66.955813,10.528904]]]},"properties":{"@geometry-type":"groundoverlay","icon":"kml_image_googlemaps-avila-warairarepano_L5_5_1.jpg"},"bbox":[-66.95581298560568,10.508768640474795,-66.9353849169123,10.528904332531877]},{"type":"Feature","geometry":{"type":"Polygon","coordinates":[[[-66.935385,10.54904],[-66.935385,10.508769],[-66.894529,10.508769],[-66.894529,10.54904],[-66.935385,10.54904]]]},"properties":{"@geometry-type":"groundoverlay","icon":"kml_image_googlemaps-avila-warairarepano_L4_2_1.jpg"},"bbox":[-66.9353849169123,10.508768640474795,-66.89452877952553,10.54904002458896]},{"type":"Feature","geometry":{"type":"Polygon","coordinates":[[[-66.935385,10.54904],[-66.935385,10.528904],[-66.914957,10.528904],[-66.914957,10.54904],[-66.935385,10.54904]]]},"properties":{"@geometry-type":"groundoverlay","icon":"kml_image_googlemaps-avila-warairarepano_L5_4_2.jpg"},"bbox":[-66.9353849169123,10.528904332531877,-66.9149568482189,10.54904002458896]},{"type":"Feature","geometry":{"type":"Polygon","coordinates":[[[-66.914957,10.54904],[-66.914957,10.528904],[-66.894529,10.528904],[-66.894529,10.54904],[-66.914957,10.54904]]]},"properties":{"@geometry-type":"groundoverlay","icon":"kml_image_googlemaps-avila-warairarepano_L5_4_3.jpg"},"bbox":[-66.9149568482189,10.528904332531877,-66.89452877952553,10.54904002458896]},{"type":"Feature","geometry":{"type":"Polygon","coordinates":[[[-66.935385,10.528904],[-66.935385,10.508769],[-66.914957,10.508769],[-66.914957,10.528904],[-66.935385,10.528904]]]},"properties":{"@geometry-type":"groundoverlay","icon":"kml_image_googlemaps-avila-warairarepano_L5_5_2.jpg"},"bbox":[-66.9353849169123,10.508768640474795,-66.9149568482189,10.528904332531877]},{"type":"Feature","geometry":{"type":"Polygon","coordinates":[[[-66.914957,10.528904],[-66.914957,10.508769],[-66.894529,10.508769],[-66.894529,10.528904],[-66.914957,10.528904]]]},"properties":{"@geometry-type":"groundoverlay","icon":"kml_image_googlemaps-avila-warairarepano_L5_5_3.jpg"},"bbox":[-66.9149568482189,10.508768640474795,-66.89452877952553,10.528904332531877]},{"type":"Feature","geometry":{"type":"Polygon","coordinates":[[[-66.976241,10.508769],[-66.976241,10.48531],[-66.935385,10.48531],[-66.935385,10.508769],[-66.976241,10.508769]]]},"properties":{"@geometry-type":"groundoverlay","icon":"kml_image_googlemaps-avila-warairarepano_L4_3_0.jpg"},"bbox":[-66.97624105429905,10.485309772677823,-66.9353849169123,10.508768640474795]},{"type":"Feature","geometry":{"type":"Polygon","coordinates":[[[-66.976241,10.508769],[-66.976241,10.488633],[-66.955813,10.488633],[-66.955813,10.508769],[-66.976241,10.508769]]]},"properties":{"@geometry-type":"groundoverlay","icon":"kml_image_googlemaps-avila-warairarepano_L5_6_0.jpg"},"bbox":[-66.97624105429905,10.488632948417713,-66.95581298560568,10.508768640474795]},{"type":"Feature","geometry":{"type":"Polygon","coordinates":[[[-66.955813,10.508769],[-66.955813,10.488633],[-66.935385,10.488633],[-66.935385,10.508769],[-66.955813,10.508769]]]},"properties":{"@geometry-type":"groundoverlay","icon":"kml_image_googlemaps-avila-warairarepano_L5_6_1.jpg"},"bbox":[-66.95581298560568,10.488632948417713,-66.9353849169123,10.508768640474795]},{"type":"Feature","geometry":{"type":"Polygon","coordinates":[[[-66.976241,10.488633],[-66.976241,10.48531],[-66.955813,10.48531],[-66.955813,10.488633],[-66.976241,10.488633]]]},"properties":{"@geometry-type":"groundoverlay","icon":"kml_image_googlemaps-avila-warairarepano_L5_7_0.jpg"},"bbox":[-66.97624105429905,10.485309772677823,-66.95581298560568,10.488632948417713]},{"type":"Feature","geometry":{"type":"Polygon","coordinates":[[[-66.955813,10.488633],[-66.955813,10.48531],[-66.935385,10.48531],[-66.935385,10.488633],[-66.955813,10.488633]]]},"properties":{"@geometry-type":"groundoverlay","icon":"kml_image_googlemaps-avila-warairarepano_L5_7_1.jpg"},"bbox":[-66.95581298560568,10.485309772677823,-66.9353849169123,10.488632948417713]},{"type":"Feature","geometry":{"type":"Polygon","coordinates":[[[-66.935385,10.508769],[-66.935385,10.48531],[-66.894529,10.48531],[-66.894529,10.508769],[-66.935385,10.508769]]]},"properties":{"@geometry-type":"groundoverlay","icon":"kml_image_googlemaps-avila-warairarepano_L4_3_1.jpg"},"bbox":[-66.9353849169123,10.485309772677823,-66.89452877952553,10.508768640474795]},{"type":"Feature","geometry":{"type":"Polygon","coordinates":[[[-66.935385,10.508769],[-66.935385,10.488633],[-66.914957,10.488633],[-66.914957,10.508769],[-66.935385,10.508769]]]},"properties":{"@geometry-type":"groundoverlay","icon":"kml_image_googlemaps-avila-warairarepano_L5_6_2.jpg"},"bbox":[-66.9353849169123,10.488632948417713,-66.9149568482189,10.508768640474795]},{"type":"Feature","geometry":{"type":"Polygon","coordinates":[[[-66.914957,10.508769],[-66.914957,10.488633],[-66.894529,10.488633],[-66.894529,10.508769],[-66.914957,10.508769]]]},"properties":{"@geometry-type":"groundoverlay","icon":"kml_image_googlemaps-avila-warairarepano_L5_6_3.jpg"},"bbox":[-66.9149568482189,10.488632948417713,-66.89452877952553,10.508768640474795]},{"type":"Feature","geometry":{"type":"Polygon","coordinates":[[[-66.935385,10.488633],[-66.935385,10.48531],[-66.914957,10.48531],[-66.914957,10.488633],[-66.935385,10.488633]]]},"properties":{"@geometry-type":"groundoverlay","icon":"kml_image_googlemaps-avila-warairarepano_L5_7_2.jpg"},"bbox":[-66.9353849169123,10.485309772677823,-66.9149568482189,10.488632948417713]},{"type":"Feature","geometry":{"type":"Polygon","coordinates":[[[-66.914957,10.488633],[-66.914957,10.48531],[-66.894529,10.48531],[-66.894529,10.488633],[-66.914957,10.488633]]]},"properties":{"@geometry-type":"groundoverlay","icon":"kml_image_googlemaps-avila-warairarepano_L5_7_3.jpg"},"bbox":[-66.9149568482189,10.485309772677823,-66.89452877952553,10.488632948417713]},{"type":"Feature","geometry":{"type":"Polygon","coordinates":[[[-66.894529,10.54904],[-66.894529,10.48531],[-66.812817,10.48531],[-66.812817,10.54904],[-66.894529,10.54904]]]},"properties":{"@geometry-type":"groundoverlay","icon":"kml_image_googlemaps-avila-warairarepano_L3_1_1.jpg"},"bbox":[-66.89452877952553,10.485309772677823,-66.81281650475202,10.54904002458896]},{"type":"Feature","geometry":{"type":"Polygon","coordinates":[[[-66.894529,10.54904],[-66.894529,10.508769],[-66.853673,10.508769],[-66.853673,10.54904],[-66.894529,10.54904]]]},"properties":{"@geometry-type":"groundoverlay","icon":"kml_image_googlemaps-avila-warairarepano_L4_2_2.jpg"},"bbox":[-66.89452877952553,10.508768640474795,-66.85367264213878,10.54904002458896]},{"type":"Feature","geometry":{"type":"Polygon","coordinates":[[[-66.894529,10.54904],[-66.894529,10.528904],[-66.874101,10.528904],[-66.874101,10.54904],[-66.894529,10.54904]]]},"properties":{"@geometry-type":"groundoverlay","icon":"kml_image_googlemaps-avila-warairarepano_L5_4_4.jpg"},"bbox":[-66.89452877952553,10.528904332531877,-66.87410071083215,10.54904002458896]},{"type":"Feature","geometry":{"type":"Polygon","coordinates":[[[-66.874101,10.54904],[-66.874101,10.528904],[-66.853673,10.528904],[-66.853673,10.54904],[-66.874101,10.54904]]]},"properties":{"@geometry-type":"groundoverlay","icon":"kml_image_googlemaps-avila-warairarepano_L5_4_5.jpg"},"bbox":[-66.87410071083215,10.528904332531877,-66.85367264213878,10.54904002458896]},{"type":"Feature","geometry":{"type":"Polygon","coordinates":[[[-66.894529,10.528904],[-66.894529,10.508769],[-66.874101,10.508769],[-66.874101,10.528904],[-66.894529,10.528904]]]},"properties":{"@geometry-type":"groundoverlay","icon":"kml_image_googlemaps-avila-warairarepano_L5_5_4.jpg"},"bbox":[-66.89452877952553,10.508768640474795,-66.87410071083215,10.528904332531877]},{"type":"Feature","geometry":{"type":"Polygon","coordinates":[[[-66.874101,10.528904],[-66.874101,10.508769],[-66.853673,10.508769],[-66.853673,10.528904],[-66.874101,10.528904]]]},"properties":{"@geometry-type":"groundoverlay","icon":"kml_image_googlemaps-avila-warairarepano_L5_5_5.jpg"},"bbox":[-66.87410071083215,10.508768640474795,-66.85367264213878,10.528904332531877]},{"type":"Feature","geometry":{"type":"Polygon","coordinates":[[[-66.853673,10.54904],[-66.853673,10.508769],[-66.812817,10.508769],[-66.812817,10.54904],[-66.853673,10.54904]]]},"properties":{"@geometry-type":"groundoverlay","icon":"kml_image_googlemaps-avila-warairarepano_L4_2_3.jpg"},"bbox":[-66.85367264213878,10.508768640474795,-66.81281650475202,10.54904002458896]},{"type":"Feature","geometry":{"type":"Polygon","coordinates":[[[-66.853673,10.54904],[-66.853673,10.528904],[-66.833245,10.528904],[-66.833245,10.54904],[-66.853673,10.54904]]]},"properties":{"@geometry-type":"groundoverlay","icon":"kml_image_googlemaps-avila-warairarepano_L5_4_6.jpg"},"bbox":[-66.85367264213878,10.528904332531877,-66.8332445734454,10.54904002458896]},{"type":"Feature","geometry":{"type":"Polygon","coordinates":[[[-66.833245,10.54904],[-66.833245,10.528904],[-66.812817,10.528904],[-66.812817,10.54904],[-66.833245,10.54904]]]},"properties":{"@geometry-type":"groundoverlay","icon":"kml_image_googlemaps-avila-warairarepano_L5_4_7.jpg"},"bbox":[-66.8332445734454,10.528904332531877,-66.81281650475202,10.54904002458896]},{"type":"Feature","geometry":{"type":"Polygon","coordinates":[[[-66.853673,10.528904],[-66.853673,10.508769],[-66.833245,10.508769],[-66.833245,10.528904],[-66.853673,10.528904]]]},"properties":{"@geometry-type":"groundoverlay","icon":"kml_image_googlemaps-avila-warairarepano_L5_5_6.jpg"},"bbox":[-66.85367264213878,10.508768640474795,-66.8332445734454,10.528904332531877]},{"type":"Feature","geometry":{"type":"Polygon","coordinates":[[[-66.833245,10.528904],[-66.833245,10.508769],[-66.812817,10.508769],[-66.812817,10.528904],[-66.833245,10.528904]]]},"properties":{"@geometry-type":"groundoverlay","icon":"kml_image_googlemaps-avila-warairarepano_L5_5_7.jpg"},"bbox":[-66.8332445734454,10.508768640474795,-66.81281650475202,10.528904332531877]},{"type":"Feature","geometry":{"type":"Polygon","coordinates":[[[-66.894529,10.508769],[-66.894529,10.48531],[-66.853673,10.48531],[-66.853673,10.508769],[-66.894529,10.508769]]]},"properties":{"@geometry-type":"groundoverlay","icon":"kml_image_googlemaps-avila-warairarepano_L4_3_2.jpg"},"bbox":[-66.89452877952553,10.485309772677823,-66.85367264213878,10.508768640474795]},{"type":"Feature","geometry":{"type":"Polygon","coordinates":[[[-66.894529,10.508769],[-66.894529,10.488633],[-66.874101,10.488633],[-66.874101,10.508769],[-66.894529,10.508769]]]},"properties":{"@geometry-type":"groundoverlay","icon":"kml_image_googlemaps-avila-warairarepano_L5_6_4.jpg"},"bbox":[-66.89452877952553,10.488632948417713,-66.87410071083215,10.508768640474795]},{"type":"Feature","geometry":{"type":"Polygon","coordinates":[[[-66.874101,10.508769],[-66.874101,10.488633],[-66.853673,10.488633],[-66.853673,10.508769],[-66.874101,10.508769]]]},"properties":{"@geometry-type":"groundoverlay","icon":"kml_image_googlemaps-avila-warairarepano_L5_6_5.jpg"},"bbox":[-66.87410071083215,10.488632948417713,-66.85367264213878,10.508768640474795]},{"type":"Feature","geometry":{"type":"Polygon","coordinates":[[[-66.894529,10.488633],[-66.894529,10.48531],[-66.874101,10.48531],[-66.874101,10.488633],[-66.894529,10.488633]]]},"properties":{"@geometry-type":"groundoverlay","icon":"kml_image_googlemaps-avila-warairarepano_L5_7_4.jpg"},"bbox":[-66.89452877952553,10.485309772677823,-66.87410071083215,10.488632948417713]},{"type":"Feature","geometry":{"type":"Polygon","coordinates":[[[-66.874101,10.488633],[-66.874101,10.48531],[-66.853673,10.48531],[-66.853673,10.488633],[-66.874101,10.488633]]]},"properties":{"@geometry-type":"groundoverlay","icon":"kml_image_googlemaps-avila-warairarepano_L5_7_5.jpg"},"bbox":[-66.87410071083215,10.485309772677823,-66.85367264213878,10.488632948417713]},{"type":"Feature","geometry":{"type":"Polygon","coordinates":[[[-66.853673,10.508769],[-66.853673,10.48531],[-66.812817,10.48531],[-66.812817,10.508769],[-66.853673,10.508769]]]},"properties":{"@geometry-type":"groundoverlay","icon":"kml_image_googlemaps-avila-warairarepano_L4_3_3.jpg"},"bbox":[-66.85367264213878,10.485309772677823,-66.81281650475202,10.508768640474795]},{"type":"Feature","geometry":{"type":"Polygon","coordinates":[[[-66.853673,10.508769],[-66.853673,10.488633],[-66.833245,10.488633],[-66.833245,10.508769],[-66.853673,10.508769]]]},"properties":{"@geometry-type":"groundoverlay","icon":"kml_image_googlemaps-avila-warairarepano_L5_6_6.jpg"},"bbox":[-66.85367264213878,10.488632948417713,-66.8332445734454,10.508768640474795]},{"type":"Feature","geometry":{"type":"Polygon","coordinates":[[[-66.833245,10.508769],[-66.833245,10.488633],[-66.812817,10.488633],[-66.812817,10.508769],[-66.833245,10.508769]]]},"properties":{"@geometry-type":"groundoverlay","icon":"kml_image_googlemaps-avila-warairarepano_L5_6_7.jpg"},"bbox":[-66.8332445734454,10.488632948417713,-66.81281650475202,10.508768640474795]},{"type":"Feature","geometry":{"type":"Polygon","coordinates":[[[-66.853673,10.488633],[-66.853673,10.48531],[-66.833245,10.48531],[-66.833245,10.488633],[-66.853673,10.488633]]]},"properties":{"@geometry-type":"groundoverlay","icon":"kml_image_googlemaps-avila-warairarepano_L5_7_6.jpg"},"bbox":[-66.85367264213878,10.485309772677823,-66.8332445734454,10.488632948417713]},{"type":"Feature","geometry":{"type":"Polygon","coordinates":[[[-66.833245,10.488633],[-66.833245,10.48531],[-66.812817,10.48531],[-66.812817,10.488633],[-66.833245,10.488633]]]},"properties":{"@geometry-type":"groundoverlay","icon":"kml_image_googlemaps-avila-warairarepano_L5_7_7.jpg"},"bbox":[-66.8332445734454,10.485309772677823,-66.81281650475202,10.488632948417713]},{"type":"Feature","geometry":{"type":"Polygon","coordinates":[[[-66.812817,10.629583],[-66.812817,10.48531],[-66.696911,10.48531],[-66.696911,10.629583],[-66.812817,10.629583]]]},"properties":{"@geometry-type":"groundoverlay","icon":"kml_image_googlemaps-avila-warairarepano_L2_0_1.jpg"},"bbox":[-66.81281650475202,10.485309772677823,-66.69691115406009,10.629582792817288]},{"type":"Feature","geometry":{"type":"Polygon","coordinates":[[[-66.812817,10.629583],[-66.812817,10.54904],[-66.731104,10.54904],[-66.731104,10.629583],[-66.812817,10.629583]]]},"properties":{"@geometry-type":"groundoverlay","icon":"kml_image_googlemaps-avila-warairarepano_L3_0_2.jpg"},"bbox":[-66.81281650475202,10.54904002458896,-66.7311042299785,10.629582792817288]},{"type":"Feature","geometry":{"type":"Polygon","coordinates":[[[-66.812817,10.629583],[-66.812817,10.589311],[-66.77196,10.589311],[-66.77196,10.629583],[-66.812817,10.629583]]]},"properties":{"@geometry-type":"groundoverlay","icon":"kml_image_googlemaps-avila-warairarepano_L4_0_4.jpg"},"bbox":[-66.81281650475202,10.589311408703123,-66.77196036736525,10.629582792817288]},{"type":"Feature","geometry":{"type":"Polygon","coordinates":[[[-66.812817,10.629583],[-66.812817,10.609447],[-66.792388,10.609447],[-66.792388,10.629583],[-66.812817,10.629583]]]},"properties":{"@geometry-type":"groundoverlay","icon":"kml_image_googlemaps-avila-warairarepano_L5_0_8.jpg"},"bbox":[-66.81281650475202,10.609447100760207,-66.79238843605863,10.629582792817288]},{"type":"Feature","geometry":{"type":"Polygon","coordinates":[[[-66.792388,10.629583],[-66.792388,10.609447],[-66.77196,10.609447],[-66.77196,10.629583],[-66.792388,10.629583]]]},"properties":{"@geometry-type":"groundoverlay","icon":"kml_image_googlemaps-avila-warairarepano_L5_0_9.jpg"},"bbox":[-66.79238843605863,10.609447100760207,-66.77196036736525,10.629582792817288]},{"type":"Feature","geometry":{"type":"Polygon","coordinates":[[[-66.812817,10.609447],[-66.812817,10.589311],[-66.792388,10.589311],[-66.792388,10.609447],[-66.812817,10.609447]]]},"properties":{"@geometry-type":"groundoverlay","icon":"kml_image_googlemaps-avila-warairarepano_L5_1_8.jpg"},"bbox":[-66.81281650475202,10.589311408703123,-66.79238843605863,10.609447100760207]},{"type":"Feature","geometry":{"type":"Polygon","coordinates":[[[-66.792388,10.609447],[-66.792388,10.589311],[-66.77196,10.589311],[-66.77196,10.609447],[-66.792388,10.609447]]]},"properties":{"@geometry-type":"groundoverlay","icon":"kml_image_googlemaps-avila-warairarepano_L5_1_9.jpg"},"bbox":[-66.79238843605863,10.589311408703123,-66.77196036736525,10.609447100760207]},{"type":"Feature","geometry":{"type":"Polygon","coordinates":[[[-66.77196,10.629583],[-66.77196,10.589311],[-66.731104,10.589311],[-66.731104,10.629583],[-66.77196,10.629583]]]},"properties":{"@geometry-type":"groundoverlay","icon":"kml_image_googlemaps-avila-warairarepano_L4_0_5.jpg"},"bbox":[-66.77196036736525,10.589311408703123,-66.7311042299785,10.629582792817288]},{"type":"Feature","geometry":{"type":"Polygon","coordinates":[[[-66.77196,10.629583],[-66.77196,10.609447],[-66.751532,10.609447],[-66.751532,10.629583],[-66.77196,10.629583]]]},"properties":{"@geometry-type":"groundoverlay","icon":"kml_image_googlemaps-avila-warairarepano_L5_0_10.jpg"},"bbox":[-66.77196036736525,10.609447100760207,-66.75153229867188,10.629582792817288]},{"type":"Feature","geometry":{"type":"Polygon","coordinates":[[[-66.751532,10.629583],[-66.751532,10.609447],[-66.731104,10.609447],[-66.731104,10.629583],[-66.751532,10.629583]]]},"properties":{"@geometry-type":"groundoverlay","icon":"kml_image_googlemaps-avila-warairarepano_L5_0_11.jpg"},"bbox":[-66.75153229867188,10.609447100760207,-66.7311042299785,10.629582792817288]},{"type":"Feature","geometry":{"type":"Polygon","coordinates":[[[-66.77196,10.609447],[-66.77196,10.589311],[-66.751532,10.589311],[-66.751532,10.609447],[-66.77196,10.609447]]]},"properties":{"@geometry-type":"groundoverlay","icon":"kml_image_googlemaps-avila-warairarepano_L5_1_10.jpg"},"bbox":[-66.77196036736525,10.589311408703123,-66.75153229867188,10.609447100760207]},{"type":"Feature","geometry":{"type":"Polygon","coordinates":[[[-66.751532,10.609447],[-66.751532,10.589311],[-66.731104,10.589311],[-66.731104,10.609447],[-66.751532,10.609447]]]},"properties":{"@geometry-type":"groundoverlay","icon":"kml_image_googlemaps-avila-warairarepano_L5_1_11.jpg"},"bbox":[-66.75153229867188,10.589311408703123,-66.7311042299785,10.609447100760207]},{"type":"Feature","geometry":{"type":"Polygon","coordinates":[[[-66.812817,10.589311],[-66.812817,10.54904],[-66.77196,10.54904],[-66.77196,10.589311],[-66.812817,10.589311]]]},"properties":{"@geometry-type":"groundoverlay","icon":"kml_image_googlemaps-avila-warairarepano_L4_1_4.jpg"},"bbox":[-66.81281650475202,10.54904002458896,-66.77196036736525,10.589311408703123]},{"type":"Feature","geometry":{"type":"Polygon","coordinates":[[[-66.812817,10.589311],[-66.812817,10.569176],[-66.792388,10.569176],[-66.792388,10.589311],[-66.812817,10.589311]]]},"properties":{"@geometry-type":"groundoverlay","icon":"kml_image_googlemaps-avila-warairarepano_L5_2_8.jpg"},"bbox":[-66.81281650475202,10.569175716646042,-66.79238843605863,10.589311408703123]},{"type":"Feature","geometry":{"type":"Polygon","coordinates":[[[-66.792388,10.589311],[-66.792388,10.569176],[-66.77196,10.569176],[-66.77196,10.589311],[-66.792388,10.589311]]]},"properties":{"@geometry-type":"groundoverlay","icon":"kml_image_googlemaps-avila-warairarepano_L5_2_9.jpg"},"bbox":[-66.79238843605863,10.569175716646042,-66.77196036736525,10.589311408703123]},{"type":"Feature","geometry":{"type":"Polygon","coordinates":[[[-66.812817,10.569176],[-66.812817,10.54904],[-66.792388,10.54904],[-66.792388,10.569176],[-66.812817,10.569176]]]},"properties":{"@geometry-type":"groundoverlay","icon":"kml_image_googlemaps-avila-warairarepano_L5_3_8.jpg"},"bbox":[-66.81281650475202,10.54904002458896,-66.79238843605863,10.569175716646042]},{"type":"Feature","geometry":{"type":"Polygon","coordinates":[[[-66.792388,10.569176],[-66.792388,10.54904],[-66.77196,10.54904],[-66.77196,10.569176],[-66.792388,10.569176]]]},"properties":{"@geometry-type":"groundoverlay","icon":"kml_image_googlemaps-avila-warairarepano_L5_3_9.jpg"},"bbox":[-66.79238843605863,10.54904002458896,-66.77196036736525,10.569175716646042]},{"type":"Feature","geometry":{"type":"Polygon","coordinates":[[[-66.77196,10.589311],[-66.77196,10.54904],[-66.731104,10.54904],[-66.731104,10.589311],[-66.77196,10.589311]]]},"properties":{"@geometry-type":"groundoverlay","icon":"kml_image_googlemaps-avila-warairarepano_L4_1_5.jpg"},"bbox":[-66.77196036736525,10.54904002458896,-66.7311042299785,10.589311408703123]},{"type":"Feature","geometry":{"type":"Polygon","coordinates":[[[-66.77196,10.589311],[-66.77196,10.569176],[-66.751532,10.569176],[-66.751532,10.589311],[-66.77196,10.589311]]]},"properties":{"@geometry-type":"groundoverlay","icon":"kml_image_googlemaps-avila-warairarepano_L5_2_10.jpg"},"bbox":[-66.77196036736525,10.569175716646042,-66.75153229867188,10.589311408703123]},{"type":"Feature","geometry":{"type":"Polygon","coordinates":[[[-66.751532,10.589311],[-66.751532,10.569176],[-66.731104,10.569176],[-66.731104,10.589311],[-66.751532,10.589311]]]},"properties":{"@geometry-type":"groundoverlay","icon":"kml_image_googlemaps-avila-warairarepano_L5_2_11.jpg"},"bbox":[-66.75153229867188,10.569175716646042,-66.7311042299785,10.589311408703123]},{"type":"Feature","geometry":{"type":"Polygon","coordinates":[[[-66.77196,10.569176],[-66.77196,10.54904],[-66.751532,10.54904],[-66.751532,10.569176],[-66.77196,10.569176]]]},"properties":{"@geometry-type":"groundoverlay","icon":"kml_image_googlemaps-avila-warairarepano_L5_3_10.jpg"},"bbox":[-66.77196036736525,10.54904002458896,-66.75153229867188,10.569175716646042]},{"type":"Feature","geometry":{"type":"Polygon","coordinates":[[[-66.751532,10.569176],[-66.751532,10.54904],[-66.731104,10.54904],[-66.731104,10.569176],[-66.751532,10.569176]]]},"properties":{"@geometry-type":"groundoverlay","icon":"kml_image_googlemaps-avila-warairarepano_L5_3_11.jpg"},"bbox":[-66.75153229867188,10.54904002458896,-66.7311042299785,10.569175716646042]},{"type":"Feature","geometry":{"type":"Polygon","coordinates":[[[-66.731104,10.629583],[-66.731104,10.54904],[-66.696911,10.54904],[-66.696911,10.629583],[-66.731104,10.629583]]]},"properties":{"@geometry-type":"groundoverlay","icon":"kml_image_googlemaps-avila-warairarepano_L3_0_3.jpg"},"bbox":[-66.7311042299785,10.54904002458896,-66.69691115406009,10.629582792817288]},{"type":"Feature","geometry":{"type":"Polygon","coordinates":[[[-66.731104,10.629583],[-66.731104,10.589311],[-66.696911,10.589311],[-66.696911,10.629583],[-66.731104,10.629583]]]},"properties":{"@geometry-type":"groundoverlay","icon":"kml_image_googlemaps-avila-warairarepano_L4_0_6.jpg"},"bbox":[-66.7311042299785,10.589311408703123,-66.69691115406009,10.629582792817288]},{"type":"Feature","geometry":{"type":"Polygon","coordinates":[[[-66.731104,10.629583],[-66.731104,10.609447],[-66.710676,10.609447],[-66.710676,10.629583],[-66.731104,10.629583]]]},"properties":{"@geometry-type":"groundoverlay","icon":"kml_image_googlemaps-avila-warairarepano_L5_0_12.jpg"},"bbox":[-66.7311042299785,10.609447100760207,-66.71067616128512,10.629582792817288]},{"type":"Feature","geometry":{"type":"Polygon","coordinates":[[[-66.710676,10.629583],[-66.710676,10.609447],[-66.696911,10.609447],[-66.696911,10.629583],[-66.710676,10.629583]]]},"properties":{"@geometry-type":"groundoverlay","icon":"kml_image_googlemaps-avila-warairarepano_L5_0_13.jpg"},"bbox":[-66.71067616128512,10.609447100760207,-66.69691115406009,10.629582792817288]},{"type":"Feature","geometry":{"type":"Polygon","coordinates":[[[-66.731104,10.609447],[-66.731104,10.589311],[-66.710676,10.589311],[-66.710676,10.609447],[-66.731104,10.609447]]]},"properties":{"@geometry-type":"groundoverlay","icon":"kml_image_googlemaps-avila-warairarepano_L5_1_12.jpg"},"bbox":[-66.7311042299785,10.589311408703123,-66.71067616128512,10.609447100760207]},{"type":"Feature","geometry":{"type":"Polygon","coordinates":[[[-66.710676,10.609447],[-66.710676,10.589311],[-66.696911,10.589311],[-66.696911,10.609447],[-66.710676,10.609447]]]},"properties":{"@geometry-type":"groundoverlay","icon":"kml_image_googlemaps-avila-warairarepano_L5_1_13.jpg"},"bbox":[-66.71067616128512,10.589311408703123,-66.69691115406009,10.609447100760207]},{"type":"Feature","geometry":{"type":"Polygon","coordinates":[[[-66.731104,10.589311],[-66.731104,10.54904],[-66.696911,10.54904],[-66.696911,10.589311],[-66.731104,10.589311]]]},"properties":{"@geometry-type":"groundoverlay","icon":"kml_image_googlemaps-avila-warairarepano_L4_1_6.jpg"},"bbox":[-66.7311042299785,10.54904002458896,-66.69691115406009,10.589311408703123]},{"type":"Feature","geometry":{"type":"Polygon","coordinates":[[[-66.731104,10.589311],[-66.731104,10.569176],[-66.710676,10.569176],[-66.710676,10.589311],[-66.731104,10.589311]]]},"properties":{"@geometry-type":"groundoverlay","icon":"kml_image_googlemaps-avila-warairarepano_L5_2_12.jpg"},"bbox":[-66.7311042299785,10.569175716646042,-66.71067616128512,10.589311408703123]},{"type":"Feature","geometry":{"type":"Polygon","coordinates":[[[-66.710676,10.589311],[-66.710676,10.569176],[-66.696911,10.569176],[-66.696911,10.589311],[-66.710676,10.589311]]]},"properties":{"@geometry-type":"groundoverlay","icon":"kml_image_googlemaps-avila-warairarepano_L5_2_13.jpg"},"bbox":[-66.71067616128512,10.569175716646042,-66.69691115406009,10.589311408703123]},{"type":"Feature","geometry":{"type":"Polygon","coordinates":[[[-66.731104,10.569176],[-66.731104,10.54904],[-66.710676,10.54904],[-66.710676,10.569176],[-66.731104,10.569176]]]},"properties":{"@geometry-type":"groundoverlay","icon":"kml_image_googlemaps-avila-warairarepano_L5_3_12.jpg"},"bbox":[-66.7311042299785,10.54904002458896,-66.71067616128512,10.569175716646042]},{"type":"Feature","geometry":{"type":"Polygon","coordinates":[[[-66.710676,10.569176],[-66.710676,10.54904],[-66.696911,10.54904],[-66.696911,10.569176],[-66.710676,10.569176]]]},"properties":{"@geometry-type":"groundoverlay","icon":"kml_image_googlemaps-avila-warairarepano_L5_3_13.jpg"},"bbox":[-66.71067616128512,10.54904002458896,-66.69691115406009,10.569175716646042]},{"type":"Feature","geometry":{"type":"Polygon","coordinates":[[[-66.812817,10.54904],[-66.812817,10.48531],[-66.731104,10.48531],[-66.731104,10.54904],[-66.812817,10.54904]]]},"properties":{"@geometry-type":"groundoverlay","icon":"kml_image_googlemaps-avila-warairarepano_L3_1_2.jpg"},"bbox":[-66.81281650475202,10.485309772677823,-66.7311042299785,10.54904002458896]},{"type":"Feature","geometry":{"type":"Polygon","coordinates":[[[-66.812817,10.54904],[-66.812817,10.508769],[-66.77196,10.508769],[-66.77196,10.54904],[-66.812817,10.54904]]]},"properties":{"@geometry-type":"groundoverlay","icon":"kml_image_googlemaps-avila-warairarepano_L4_2_4.jpg"},"bbox":[-66.81281650475202,10.508768640474795,-66.77196036736525,10.54904002458896]},{"type":"Feature","geometry":{"type":"Polygon","coordinates":[[[-66.812817,10.54904],[-66.812817,10.528904],[-66.792388,10.528904],[-66.792388,10.54904],[-66.812817,10.54904]]]},"properties":{"@geometry-type":"groundoverlay","icon":"kml_image_googlemaps-avila-warairarepano_L5_4_8.jpg"},"bbox":[-66.81281650475202,10.528904332531877,-66.79238843605863,10.54904002458896]},{"type":"Feature","geometry":{"type":"Polygon","coordinates":[[[-66.792388,10.54904],[-66.792388,10.528904],[-66.77196,10.528904],[-66.77196,10.54904],[-66.792388,10.54904]]]},"properties":{"@geometry-type":"groundoverlay","icon":"kml_image_googlemaps-avila-warairarepano_L5_4_9.jpg"},"bbox":[-66.79238843605863,10.528904332531877,-66.77196036736525,10.54904002458896]},{"type":"Feature","geometry":{"type":"Polygon","coordinates":[[[-66.812817,10.528904],[-66.812817,10.508769],[-66.792388,10.508769],[-66.792388,10.528904],[-66.812817,10.528904]]]},"properties":{"@geometry-type":"groundoverlay","icon":"kml_image_googlemaps-avila-warairarepano_L5_5_8.jpg"},"bbox":[-66.81281650475202,10.508768640474795,-66.79238843605863,10.528904332531877]},{"type":"Feature","geometry":{"type":"Polygon","coordinates":[[[-66.792388,10.528904],[-66.792388,10.508769],[-66.77196,10.508769],[-66.77196,10.528904],[-66.792388,10.528904]]]},"properties":{"@geometry-type":"groundoverlay","icon":"kml_image_googlemaps-avila-warairarepano_L5_5_9.jpg"},"bbox":[-66.79238843605863,10.508768640474795,-66.77196036736525,10.528904332531877]},{"type":"Feature","geometry":{"type":"Polygon","coordinates":[[[-66.77196,10.54904],[-66.77196,10.508769],[-66.731104,10.508769],[-66.731104,10.54904],[-66.77196,10.54904]]]},"properties":{"@geometry-type":"groundoverlay","icon":"kml_image_googlemaps-avila-warairarepano_L4_2_5.jpg"},"bbox":[-66.77196036736525,10.508768640474795,-66.7311042299785,10.54904002458896]},{"type":"Feature","geometry":{"type":"Polygon","coordinates":[[[-66.77196,10.54904],[-66.77196,10.528904],[-66.751532,10.528904],[-66.751532,10.54904],[-66.77196,10.54904]]]},"properties":{"@geometry-type":"groundoverlay","icon":"kml_image_googlemaps-avila-warairarepano_L5_4_10.jpg"},"bbox":[-66.77196036736525,10.528904332531877,-66.75153229867188,10.54904002458896]},{"type":"Feature","geometry":{"type":"Polygon","coordinates":[[[-66.751532,10.54904],[-66.751532,10.528904],[-66.731104,10.528904],[-66.731104,10.54904],[-66.751532,10.54904]]]},"properties":{"@geometry-type":"groundoverlay","icon":"kml_image_googlemaps-avila-warairarepano_L5_4_11.jpg"},"bbox":[-66.75153229867188,10.528904332531877,-66.7311042299785,10.54904002458896]},{"type":"Feature","geometry":{"type":"Polygon","coordinates":[[[-66.77196,10.528904],[-66.77196,10.508769],[-66.751532,10.508769],[-66.751532,10.528904],[-66.77196,10.528904]]]},"properties":{"@geometry-type":"groundoverlay","icon":"kml_image_googlemaps-avila-warairarepano_L5_5_10.jpg"},"bbox":[-66.77196036736525,10.508768640474795,-66.75153229867188,10.528904332531877]},{"type":"Feature","geometry":{"type":"Polygon","coordinates":[[[-66.751532,10.528904],[-66.751532,10.508769],[-66.731104,10.508769],[-66.731104,10.528904],[-66.751532,10.528904]]]},"properties":{"@geometry-type":"groundoverlay","icon":"kml_image_googlemaps-avila-warairarepano_L5_5_11.jpg"},"bbox":[-66.75153229867188,10.508768640474795,-66.7311042299785,10.528904332531877]},{"type":"Feature","geometry":{"type":"Polygon","coordinates":[[[-66.812817,10.508769],[-66.812817,10.48531],[-66.77196,10.48531],[-66.77196,10.508769],[-66.812817,10.508769]]]},"properties":{"@geometry-type":"groundoverlay","icon":"kml_image_googlemaps-avila-warairarepano_L4_3_4.jpg"},"bbox":[-66.81281650475202,10.485309772677823,-66.77196036736525,10.508768640474795]},{"type":"Feature","geometry":{"type":"Polygon","coordinates":[[[-66.812817,10.508769],[-66.812817,10.488633],[-66.792388,10.488633],[-66.792388,10.508769],[-66.812817,10.508769]]]},"properties":{"@geometry-type":"groundoverlay","icon":"kml_image_googlemaps-avila-warairarepano_L5_6_8.jpg"},"bbox":[-66.81281650475202,10.488632948417713,-66.79238843605863,10.508768640474795]},{"type":"Feature","geometry":{"type":"Polygon","coordinates":[[[-66.792388,10.508769],[-66.792388,10.488633],[-66.77196,10.488633],[-66.77196,10.508769],[-66.792388,10.508769]]]},"properties":{"@geometry-type":"groundoverlay","icon":"kml_image_googlemaps-avila-warairarepano_L5_6_9.jpg"},"bbox":[-66.79238843605863,10.488632948417713,-66.77196036736525,10.508768640474795]},{"type":"Feature","geometry":{"type":"Polygon","coordinates":[[[-66.812817,10.488633],[-66.812817,10.48531],[-66.792388,10.48531],[-66.792388,10.488633],[-66.812817,10.488633]]]},"properties":{"@geometry-type":"groundoverlay","icon":"kml_image_googlemaps-avila-warairarepano_L5_7_8.jpg"},"bbox":[-66.81281650475202,10.485309772677823,-66.79238843605863,10.488632948417713]},{"type":"Feature","geometry":{"type":"Polygon","coordinates":[[[-66.792388,10.488633],[-66.792388,10.48531],[-66.77196,10.48531],[-66.77196,10.488633],[-66.792388,10.488633]]]},"properties":{"@geometry-type":"groundoverlay","icon":"kml_image_googlemaps-avila-warairarepano_L5_7_9.jpg"},"bbox":[-66.79238843605863,10.485309772677823,-66.77196036736525,10.488632948417713]},{"type":"Feature","geometry":{"type":"Polygon","coordinates":[[[-66.77196,10.508769],[-66.77196,10.48531],[-66.731104,10.48531],[-66.731104,10.508769],[-66.77196,10.508769]]]},"properties":{"@geometry-type":"groundoverlay","icon":"kml_image_googlemaps-avila-warairarepano_L4_3_5.jpg"},"bbox":[-66.77196036736525,10.485309772677823,-66.7311042299785,10.508768640474795]},{"type":"Feature","geometry":{"type":"Polygon","coordinates":[[[-66.77196,10.508769],[-66.77196,10.488633],[-66.751532,10.488633],[-66.751532,10.508769],[-66.77196,10.508769]]]},"properties":{"@geometry-type":"groundoverlay","icon":"kml_image_googlemaps-avila-warairarepano_L5_6_10.jpg"},"bbox":[-66.77196036736525,10.488632948417713,-66.75153229867188,10.508768640474795]},{"type":"Feature","geometry":{"type":"Polygon","coordinates":[[[-66.751532,10.508769],[-66.751532,10.488633],[-66.731104,10.488633],[-66.731104,10.508769],[-66.751532,10.508769]]]},"properties":{"@geometry-type":"groundoverlay","icon":"kml_image_googlemaps-avila-warairarepano_L5_6_11.jpg"},"bbox":[-66.75153229867188,10.488632948417713,-66.7311042299785,10.508768640474795]},{"type":"Feature","geometry":{"type":"Polygon","coordinates":[[[-66.77196,10.488633],[-66.77196,10.48531],[-66.751532,10.48531],[-66.751532,10.488633],[-66.77196,10.488633]]]},"properties":{"@geometry-type":"groundoverlay","icon":"kml_image_googlemaps-avila-warairarepano_L5_7_10.jpg"},"bbox":[-66.77196036736525,10.485309772677823,-66.75153229867188,10.488632948417713]},{"type":"Feature","geometry":{"type":"Polygon","coordinates":[[[-66.751532,10.488633],[-66.751532,10.48531],[-66.731104,10.48531],[-66.731104,10.488633],[-66.751532,10.488633]]]},"properties":{"@geometry-type":"groundoverlay","icon":"kml_image_googlemaps-avila-warairarepano_L5_7_11.jpg"},"bbox":[-66.75153229867188,10.485309772677823,-66.7311042299785,10.488632948417713]},{"type":"Feature","geometry":{"type":"Polygon","coordinates":[[[-66.731104,10.54904],[-66.731104,10.48531],[-66.696911,10.48531],[-66.696911,10.54904],[-66.731104,10.54904]]]},"properties":{"@geometry-type":"groundoverlay","icon":"kml_image_googlemaps-avila-warairarepano_L3_1_3.jpg"},"bbox":[-66.7311042299785,10.485309772677823,-66.69691115406009,10.54904002458896]},{"type":"Feature","geometry":{"type":"Polygon","coordinates":[[[-66.731104,10.54904],[-66.731104,10.508769],[-66.696911,10.508769],[-66.696911,10.54904],[-66.731104,10.54904]]]},"properties":{"@geometry-type":"groundoverlay","icon":"kml_image_googlemaps-avila-warairarepano_L4_2_6.jpg"},"bbox":[-66.7311042299785,10.508768640474795,-66.69691115406009,10.54904002458896]},{"type":"Feature","geometry":{"type":"Polygon","coordinates":[[[-66.731104,10.54904],[-66.731104,10.528904],[-66.710676,10.528904],[-66.710676,10.54904],[-66.731104,10.54904]]]},"properties":{"@geometry-type":"groundoverlay","icon":"kml_image_googlemaps-avila-warairarepano_L5_4_12.jpg"},"bbox":[-66.7311042299785,10.528904332531877,-66.71067616128512,10.54904002458896]},{"type":"Feature","geometry":{"type":"Polygon","coordinates":[[[-66.710676,10.54904],[-66.710676,10.528904],[-66.696911,10.528904],[-66.696911,10.54904],[-66.710676,10.54904]]]},"properties":{"@geometry-type":"groundoverlay","icon":"kml_image_googlemaps-avila-warairarepano_L5_4_13.jpg"},"bbox":[-66.71067616128512,10.528904332531877,-66.69691115406009,10.54904002458896]},{"type":"Feature","geometry":{"type":"Polygon","coordinates":[[[-66.731104,10.528904],[-66.731104,10.508769],[-66.710676,10.508769],[-66.710676,10.528904],[-66.731104,10.528904]]]},"properties":{"@geometry-type":"groundoverlay","icon":"kml_image_googlemaps-avila-warairarepano_L5_5_12.jpg"},"bbox":[-66.7311042299785,10.508768640474795,-66.71067616128512,10.528904332531877]},{"type":"Feature","geometry":{"type":"Polygon","coordinates":[[[-66.710676,10.528904],[-66.710676,10.508769],[-66.696911,10.508769],[-66.696911,10.528904],[-66.710676,10.528904]]]},"properties":{"@geometry-type":"groundoverlay","icon":"kml_image_googlemaps-avila-warairarepano_L5_5_13.jpg"},"bbox":[-66.71067616128512,10.508768640474795,-66.69691115406009,10.528904332531877]},{"type":"Feature","geometry":{"type":"Polygon","coordinates":[[[-66.731104,10.508769],[-66.731104,10.48531],[-66.696911,10.48531],[-66.696911,10.508769],[-66.731104,10.508769]]]},"properties":{"@geometry-type":"groundoverlay","icon":"kml_image_googlemaps-avila-warairarepano_L4_3_6.jpg"},"bbox":[-66.7311042299785,10.485309772677823,-66.69691115406009,10.508768640474795]},{"type":"Feature","geometry":{"type":"Polygon","coordinates":[[[-66.731104,10.508769],[-66.731104,10.488633],[-66.710676,10.488633],[-66.710676,10.508769],[-66.731104,10.508769]]]},"properties":{"@geometry-type":"groundoverlay","icon":"kml_image_googlemaps-avila-warairarepano_L5_6_12.jpg"},"bbox":[-66.7311042299785,10.488632948417713,-66.71067616128512,10.508768640474795]},{"type":"Feature","geometry":{"type":"Polygon","coordinates":[[[-66.710676,10.508769],[-66.710676,10.488633],[-66.696911,10.488633],[-66.696911,10.508769],[-66.710676,10.508769]]]},"properties":{"@geometry-type":"groundoverlay","icon":"kml_image_googlemaps-avila-warairarepano_L5_6_13.jpg"},"bbox":[-66.71067616128512,10.488632948417713,-66.69691115406009,10.508768640474795]},{"type":"Feature","geometry":{"type":"Polygon","coordinates":[[[-66.731104,10.488633],[-66.731104,10.48531],[-66.710676,10.48531],[-66.710676,10.488633],[-66.731104,10.488633]]]},"properties":{"@geometry-type":"groundoverlay","icon":"kml_image_googlemaps-avila-warairarepano_L5_7_12.jpg"},"bbox":[-66.7311042299785,10.485309772677823,-66.71067616128512,10.488632948417713]},{"type":"Feature","geometry":{"type":"Polygon","coordinates":[[[-66.710676,10.488633],[-66.710676,10.48531],[-66.696911,10.48531],[-66.696911,10.488633],[-66.710676,10.488633]]]},"properties":{"@geometry-type":"groundoverlay","icon":"kml_image_googlemaps-avila-warairarepano_L5_7_13.jpg"},"bbox":[-66.71067616128512,10.485309772677823,-66.69691115406009,10.488632948417713]}]}